[{"OBJECT_NAME":"HULIANWANG DIGUI-61","OBJECT_ID":"2025-174D","EPOCH":"2026-03-09T22:38:15.500544","MEAN_MOTION":13.24420402,"ECCENTRICITY":0.00012193,"INCLINATION":86.492,"RA_OF_ASC_NODE":285.5677,"ARG_OF_PERICENTER":93.0867,"MEAN_ANOMALY":267.0406,"EPHEMERIS_TYPE":0,"CLASSIFICATION_TYPE":"U","NORAD_CAT_ID":65167,"ELEMENT_SET_NO":999,"REV_AT_EPOCH":2765,"BSTAR":8.990013e-5,"MEAN_MOTION_DOT":5.3e-7,"MEAN_MOTION_DDOT":0},{"OBJECT_NAME":"SL-14 DEB","OBJECT_ID":"1991-056M","EPOCH":"2026-03-09T20:39:32.052096","MEAN_MOTION":13.22350058,"ECCENTRICITY":0.0029281,"INCLINATION":82.5869,"RA_OF_ASC_NODE":201.6056,"ARG_OF_PERICENTER":211.6523,"MEAN_ANOMALY":148.2843,"EPHEMERIS_TYPE":0,"CLASSIFICATION_TYPE":"U","NORAD_CAT_ID":45275,"ELEMENT_SET_NO":999,"REV_AT_EPOCH":29277,"BSTAR":0.00047888998,"MEAN_MOTION_DOT":2.12e-6,"MEAN_MOTION_DDOT":0}]
